#dP2021  2 25  6  0  0.00000000      96 __u+U ITR00 EXT  IAC
## 2146 367200.00000000   900.00000000 59270 0.2500000000000
+  117   C06C07C08C09C10C11C12C13C14C16C19C20C21C22C23C24C25
+        C26C27C28C29C30C32C33C34C35C36C37C38C39C40C41C42C43
+        C44C45C46E01E02E03E04E05E07E08E09E11E12E13E14E15E18
+        E19E21E24E25E26E27E30E31E33E36G01G02G03G04G05G06G07
+        G08G09G10G11G12G13G14G15G16G17G18G19G20G21G22G23G24
+        G25G26G27G28G29G30G31G32J01J02J03R01R02R03R04R05R07
+        R08R09R11R12R13R14R15R16R17R18R19R20R21R22R24  0  0
++        10 11 11 11 11  8  8  8 10 10  9  9  8  9  9  9  9
++         9 10 10 11 10  9  8 10  9  8  8 10 12 11 10  8 11
++         8  8 10 10  9 10  9  8  9  8  8 10 10  9  8 10 13
++        10  9 10  9  9 10  9 10  9 11 11  8  9  9  9  9  9
++         8  9 10  9 10  8  8  8  8 10  8  9  9  9  9  8 10
++        10  8  8  9  8  9  9  9 10 11  9  9 10  8  9  9  9
++         9  9  9  9  9  8  9  8 10  8  9 10 10  9  9  0  0
%c M  cc GPS ccc cccc cccc cccc cccc ccccc ccccc ccccc ccccc
%c cc cc ccc ccc cccc cccc cccc cccc ccccc ccccc ccccc ccccc
%f  0.0000000  0.000000000  0.00000000000  0.000000000000000
%f  0.0000000  0.000000000  0.00000000000  0.000000000000000
%i    0    0    0    0      0      0      0      0         0
%i    0    0    0    0      0      0      0      0         0
/* IAC                                ULTRA-RAPID PREDICTION
/* S/V CLOCKS ARE ALIGNED TO GNSS TIME                      
/* G:C1WC2W R:C1PC2P E:C1XC5X C:C2IC6I J:C1CC2S             
/* PCV:IGS14_2134 OL/AL:FES2004  NONE     YN ORB:CoN CLK:CoN
*  2021 02 25 22 15  0.00000000
PC06  -6380.821006  28065.208789  31402.369614    124.912909
PC07 -23395.893956  25826.755844 -23811.700441   -362.693391
PC08 -17087.702514  37815.961458  -6123.072985   -908.169798
PC09   6208.443438  35415.465076  22632.357543    707.794220
PC10  -8650.662194  27682.095298 -30518.494299    -80.475851
PC11  -2150.424204 -23361.788911  15204.513379   -901.609136
PC12  11804.442670 -10024.565738  23254.027159    824.081794
PC13  -7567.067146  40492.160488   8448.982496    157.034957
PC14   5307.308172 -15751.811935 -22381.000331    285.082212
PC16  -3028.123843  29389.712193  30256.409898   -710.663027
PC19   6080.794892  15367.752230  22511.006424    741.289979
PC20 -14383.548522  13946.848682  19454.764066   -920.167265
PC21  27214.597918  -4046.726767  -4583.303518   -856.257611
PC22  23600.722362   7952.478216  12568.711263   -893.695678
PC23 -13236.530629  -9541.755022  22635.870736   -875.911921
PC24  14710.962343 -23638.572045  -2129.334275   -768.723425
PC25    -35.681064 -23459.568575  15122.187809   -946.468766
PC26  19286.414401 -11190.313509 -16812.260111    943.324520
PC27 -17366.837284    303.268848 -21851.221143    489.431678
PC28 -18875.981414 -17763.181029 -10336.721716   -105.105614
PC29  10263.272039  24946.349489  -7166.826075    357.420665
PC30  -5410.102412  17958.244164 -20672.915516    447.956022
PC32 -27194.114968   4279.788885   4616.516568   -900.908475
PC33  -6110.041342 -15358.085145 -22478.396959   -954.768265
PC34   4959.863286 -18421.520799  20351.909677   -731.652021
PC35  19451.026096  17331.177163  10053.312905   -400.774749
PC36   -780.981650  23584.055271 -14874.903447   -749.854059
PC37 -19489.733289   9863.730350  17364.962515   -868.828839
PC38 -15523.279107  38976.483192  -3517.842634    132.354975
PC39  -1000.741106  29445.599482  30221.074072     28.837412
PC40 -14560.466178  22635.062220 -32496.070892    135.297641
PC41 -23487.591180  -8008.094068 -12707.824330   -929.817613
PC42  15048.997043 -13747.716793 -19010.233552   -895.723693
PC43  -9755.907506 -25010.082694   7566.047063   -614.402032
PC44  17560.698876   -668.741452  21682.040318     57.475206
PC45  13214.330294   9354.398426 -22729.797965    371.952607
PC46 -14149.464439  23993.690897   1278.603638    388.513259
PE01  26099.057296 -11243.157936  -8307.779579  -1053.847729
PE02 -26078.247389  11320.767023   8196.554838    201.061833
PE03 -25025.046830    602.895660  15804.701799   -402.717533
PE04   9429.281055 -14389.226269 -24083.953832   -717.398255
PE05 -26152.507064 -13737.920453  -1873.667181   -301.568384
PE07  12012.825470  19929.981160  18293.593061   -505.593310
PE08  -8983.697642  14471.274875  24209.377133   6041.529926
PE09 -12339.076529 -19765.261185 -18260.799254   5753.256096
PE11  -5560.295258 -28734.233857  -4354.024357   6274.321471
PE12   7288.587130 -24693.004907  14593.071755   5337.904817
PE13   5403.068170  28838.604070   3967.170895    412.689320
PE14 -26897.354389  -6646.002009 -15164.804268  -1342.605373
PE15  -7111.403243  24764.676283 -14565.875047    827.478569
PE18  20854.430795  12366.816422   5577.204094  -1467.847079
PE19  25968.487575   1267.273626 -14150.600949    212.958083
PE21  19351.524008   4536.489049 -21942.680697   -650.498115
PE24   -370.196374 -18619.637465  22998.548998   -763.143234
PE25 -19208.495014  -4701.032338  22022.525088   -527.214678
PE26  14978.607809  15281.734557  20463.377029   2105.987551
PE27   1179.150435  18256.779484 -23267.320402     22.169004
PE30 -18258.144851  20936.739360 -10203.883290   3151.706150
PE31  17585.602779 -21171.354088  10909.685918   -478.637447
PE33  15437.163976  -6098.976076  24518.811400   -466.019857
PE36 -14708.169390 -15950.932437 -20118.768383    435.714521
PG01  13351.219497 -15128.819213  16843.515786    753.560264
PG02 -13531.528842  -9582.320361 -20083.946907   -580.598572
PG03  22406.399430 -13237.591822  -5094.790604    -92.849114
PG04  15885.768997  -5603.247939 -20541.477339   -182.698169
PG05 -23688.062782   1423.305884 -12269.193881    -34.698911
PG06  -6611.020722 -21594.394181 -13870.676950     -1.592683
PG07   6616.773798 -24976.488104  -4550.475182     71.350961
PG08  20641.384929    711.947336  16868.839158    -11.652652
PG09   4778.060951 -15221.233707 -21291.489739   -326.240216
PG10   2815.746116  15073.605847  21774.101681    -69.308741
PG11  13836.977901  -8400.323526  20642.506503    -14.414497
PG12 -24678.229790   9499.527270  -1552.161551     -6.194538
PG13 -21669.136150 -11222.587537  10501.615158    101.388209
PG14   -435.291950 -15813.600222  21323.428880     98.814595
PG15 -20798.657577   1800.878122  16261.070884   -166.927247
PG16  22898.626926   2557.108744 -13853.024549   -285.609111
PG17 -10863.416808 -20707.207129  13025.191772    400.367638
PG18  -5076.234613  25978.165601  -1786.213088    348.796778
PG19 -16820.931279 -20018.494602   4655.643540    -33.680476
PG20  -9035.832191  19074.264202  15907.233014    524.518415
PG21  15372.441597  -6666.248691  21250.796643     98.621858
PG22  24387.880491  -9283.766020   4611.786741   -671.971610
PG23  -9213.487900  17590.799728  17597.686794    118.342327
PG24 -14810.832949  10025.536756  19273.418793      1.864004
PG25 -15516.418482  16798.796323 -13526.990528     87.824344
PG26  15409.721019   8727.333247 -19923.143460     50.169550
PG27  23037.112824  11746.450307   6698.700586    -83.412346
PG28  -3076.415700 -14932.623966  22316.752797    610.293913
PG29  -5483.178317  14348.613600 -21704.053989   -301.715102
PG30  -1353.141937 -25463.463487   7052.280893   -390.244483
PG31   8439.676042  19350.261977 -15907.949585   -102.283519
PG32  13285.974153  20047.557023  11553.197230     19.877587
PJ01 -28769.680330  23326.464903  25251.460608   -343.478749
PJ02 -35522.080878  22764.253749   4110.216588      2.426774
PJ03 -20675.782787  21718.100304 -25033.860045     -1.085325
PR01 -21626.952800   3423.388785  13099.469880     75.562046
PR02  -2189.169877  10683.199562  23099.984402    468.475641
PR03  16086.569397  10602.126194  16789.978919     31.392922
PR04  25083.963476   4518.390311   1142.711763     75.457982
PR05  20121.128099  -3957.401316 -15175.266488     67.128186
PR07 -16584.071861 -10443.035089 -16263.576635    -42.520084
PR08 -25088.949949  -4430.360478   -965.336261    -57.616702
PR09   9714.608676 -20931.365709  10810.055764    -19.921818
PR11 -14698.472267   3014.341255  20636.889291      2.833232
PR12 -17764.232462  16948.185183   6889.234750    207.999752
PR13 -10131.152256  20983.937712 -10393.548718    -51.221506
PR14   3656.032603  12414.599350 -21976.720253     61.395773
PR15  15000.547527  -3097.662464 -20384.963069    105.210418
PR16  17307.801219 -17873.008269  -5961.874669    -11.769593
PR17  10816.509452  22647.725276   4475.981956    403.215270
PR18  13209.069906  11146.733239  18804.016172     67.885591
PR19   9052.373759  -5399.829713  23232.938511   -133.511397
PR20  -1254.929662 -21700.846007  13320.415006   -262.861175
PR21 -11113.085785 -22275.490952  -5609.765007   -190.351194
PR22 -12990.124821 -10016.537955 -19504.186188    -99.767193
PR24   1753.436244  22130.972446 -12535.115517     32.914422
EOF
